[{"OBJECT_NAME":"EXCITE","OBJECT_ID":"2018-099BP","EPOCH":"2026-03-09T16:45:15.060672","MEAN_MOTION":15.06036758,"ECCENTRICITY":0.0017626,"INCLINATION":97.4107,"RA_OF_ASC_NODE":111.3606,"ARG_OF_PERICENTER":337.4818,"MEAN_ANOMALY":22.5634,"EPHEMERIS_TYPE":0,"CLASSIFICATION_TYPE":"U","NORAD_CAT_ID":43819,"ELEMENT_SET_NO":999,"REV_AT_EPOCH":39677,"BSTAR":0.00019631388,"MEAN_MOTION_DOT":2.813e-5,"MEAN_MOTION_DDOT":0},{"OBJECT_NAME":"STARLINK-5035","OBJECT_ID":"2022-119M","EPOCH":"2026-03-09T22:44:58.852896","MEAN_MOTION":15.08839439,"ECCENTRICITY":0.00011234,"INCLINATION":53.2187,"RA_OF_ASC_NODE":322.9593,"ARG_OF_PERICENTER":100.2696,"MEAN_ANOMALY":259.8422,"EPHEMERIS_TYPE":0,"CLASSIFICATION_TYPE":"U","NORAD_CAT_ID":53897,"ELEMENT_SET_NO":999,"REV_AT_EPOCH":19172,"BSTAR":5.4099308e-5,"MEAN_MOTION_DOT":5.73e-6,"MEAN_MOTION_DDOT":0}]
